KORSAT-2                
1 62377U 24247A   26068.41070335  .00005163  00000+0  43498-3 0  9994
2 62377  45.4085 225.0391 0009773  57.7708 302.4117 14.99271316 66592
STARLINK-34515          
1 64712U 25142S   26068.88541262  .00002769  00000+0  23973-3 0  9992
2 64712  70.0014 313.7945 0003320 267.4823  92.5956 14.98337717 39497
